COMMENT,ORIGINATOR,NORAD_CAT_ID,OBJECT_NAME,OBJECT_TYPE,CLASSIFICATION_TYPE,INTLDES,EPOCH,EPOCH_MICROSECONDS,MEAN_MOTION,ECCENTRICITY,INCLINATION,RA_OF_ASC_NODE,ARG_OF_PERICENTER,MEAN_ANOMALY,EPHEMERIS_TYPE,ELEMENT_SET_NO,REV_AT_EPOCH,BSTAR,MEAN_MOTION_DOT,MEAN_MOTION_DDOT,FILE,TLE_LINE0,TLE_LINE1,TLE_LINE2,OBJECT_ID,OBJECT_NUMBER,SEMIMAJOR_AXIS,PERIOD,APOGEE,PERIGEE,DECAYED
"GENERATED VIA SPACETRACK.ORG API","18 SPCS","48897","SPACEBEE-109","PAYLOAD","U","21059U","2022-03-14 21:44:37","985280","15.13940491","0.0010377","97.5407","204.3254","73.7696","286.4677","0","999","3962","0.00063604","0.00011485","0","3360128","0 SPACEBEE-109","1 48897U 21059U   22073.90599520  .00011485  00000-0  63604-3 0  9997","2 48897  97.5407 204.3254 0010377  73.7696 286.4677 15.13940491 39623","2021-059U","48897","6902.334","95.116","531.362","517.036","0"
"GENERATED VIA SPACETRACK.ORG API","18 SPCS","48897","SPACEBEE-109","PAYLOAD","U","21059U","2022-03-15 07:15:41","314464","15.13947806","0.001041","97.5408","204.7182","72.7076","287.5294","0","999","3968","0.00049426","0.00008909","0","3360456","0 SPACEBEE-109","1 48897U 21059U   22074.30256151  .00008909  00000-0  49426-3 0  9995","2 48897  97.5408 204.7182 0010410  72.7076 287.5294 15.13947806 39687","2021-059U","48897","6902.312","95.116","531.362","516.991","0"
"GENERATED VIA SPACETRACK.ORG API","18 SPCS","48897","SPACEBEE-109","PAYLOAD","U","21059U","2022-03-15 19:57:05","500224","15.13958564","0.0010413","97.541","205.2419","71.1085","289.1274","0","999","3976","0.0004827","0.00008702","0","3360930","0 SPACEBEE-109","1 48897U 21059U   22074.83131366  .00008702  00000-0  48270-3 0  9990","2 48897  97.5410 205.2419 0010413  71.1085 289.1274 15.13958564 39763","2021-059U","48897","6902.279","95.115","531.331","516.957","0"
"GENERATED VIA SPACETRACK.ORG API","18 SPCS","48897","SPACEBEE-109","PAYLOAD","U","21059U","2022-03-16 07:03:18","927648","15.13967324","0.0010454","97.5413","205.7002","69.8073","290.4282","0","999","3983","0.00047679","0.00008596","0","3361689","0 SPACEBEE-109","1 48897U 21059U   22075.29396907  .00008596  00000-0  47679-3 0  9998","2 48897  97.5413 205.7002 0010454  69.8073 290.4282 15.13967324 39831","2021-059U","48897","6902.252","95.114","531.333","516.902","0"
"GENERATED VIA SPACETRACK.ORG API","18 SPCS","48897","SPACEBEE-109","PAYLOAD","U","21059U","2022-03-17 03:40:34","834944","15.13979752","0.0010449","97.5417","206.5512","67.2675","292.966","0","999","3996","0.00043834","0.000079","0","3362380","0 SPACEBEE-109","1 48897U 21059U   22076.15318096  .00007900  00000-0  43834-3 0  9994","2 48897  97.5417 206.5512 0010449  67.2675 292.9660 15.13979752 39963","2021-059U","48897","6902.215","95.114","531.292","516.868","0"
"GENERATED VIA SPACETRACK.ORG API","18 SPCS","48897","SPACEBEE-109","PAYLOAD","U","21059U","2022-03-17 08:26:06","102528","15.1398288","0.0010449","97.5417","206.7477","66.699","293.534","0","999","3999","0.00043042","0.00007756","0","3363104","0 SPACEBEE-109","1 48897U 21059U   22076.35145952  .00007756  00000-0  43042-3 0  9995","2 48897  97.5417 206.7477 0010449  66.6990 293.5340 15.13982880 39999","2021-059U","48897","6902.205","95.113","531.282","516.858","0"
"GENERATED VIA SPACETRACK.ORG API","18 SPCS","48897","SPACEBEE-109","PAYLOAD","U","21059U","2022-03-17 19:32:18","967488","15.13987935","0.0010426","97.5419","207.206","65.2554","294.9761","0","999","4006","0.00037061","0.00006669","0","3363151","0 SPACEBEE-109","1 48897U 21059U   22076.81410842  .00006669  00000-0  37061-3 0  9995","2 48897  97.5419 207.2060 0010426  65.2554 294.9761 15.13987935 40069","2021-059U","48897","6902.190","95.113","531.251","516.859","0"
"GENERATED VIA SPACETRACK.ORG API","18 SPCS","48897","SPACEBEE-109","PAYLOAD","U","21059U","2022-03-18 08:13:41","979072","15.13995876","0.0010388","97.542","207.7297","63.5721","296.6575","0","999","4014","0.0003767","0.00006782","0","3364096","0 SPACEBEE-109","1 48897U 21059U   22077.34284698  .00006782  00000-0  37670-3 0  9994","2 48897  97.5420 207.7297 0010388  63.5721 296.6575 15.13995876 40146","2021-059U","48897","6902.166","95.113","531.201","516.861","0"
"GENERATED VIA SPACETRACK.ORG API","18 SPCS","48897","SPACEBEE-109","PAYLOAD","U","21059U","2022-03-18 14:34:23","437344","15.13998563","0.0010368","97.5421","207.9916","62.7655","297.4631","0","999","4018","0.00035373","0.00006364","0","3364342","0 SPACEBEE-109","1 48897U 21059U   22077.60721571  .00006364  00000-0  35373-3 0  9993","2 48897  97.5421 207.9916 0010368  62.7655 297.4631 15.13998563 40184","2021-059U","48897","6902.158","95.112","531.179","516.866","0"
"GENERATED VIA SPACETRACK.ORG API","18 SPCS","48897","SPACEBEE-109","PAYLOAD","U","21059U","2022-03-18 20:55:04","823040","15.14002263","0.0010335","97.5422","208.2535","61.8726","298.3549","0","999","4022","0.00035029","0.00006302","0","3364757","0 SPACEBEE-109","1 48897U 21059U   22077.87158360  .00006302  00000-0  35029-3 0  9992","2 48897  97.5422 208.2535 0010335  61.8726 298.3549 15.14002263 40226","2021-059U","48897","6902.146","95.112","531.145","516.878","0"
"GENERATED VIA SPACETRACK.ORG API","18 SPCS","48897","SPACEBEE-109","PAYLOAD","U","21059U","2022-03-19 14:21:58","410144","15.14010518","0.0010245","97.5422","208.9736","59.5314","300.6928","0","999","4033","0.00033352","0.00005998","0","3365744","0 SPACEBEE-109","1 48897U 21059U   22078.59859271  .00005998  00000-0  33352-3 0  9998","2 48897  97.5422 208.9736 0010245  59.5314 300.6928 15.14010518 40335","2021-059U","48897","6902.121","95.112","531.057","516.915","0"
"GENERATED VIA SPACETRACK.ORG API","18 SPCS","48897","SPACEBEE-109","PAYLOAD","U","21059U","2022-03-19 20:42:39","616992","15.14014015","0.001021","97.5423","209.2354","58.6452","301.5777","0","999","4037","0.00033535","0.00006032","0","3365907","0 SPACEBEE-109","1 48897U 21059U   22078.86295853  .00006032  00000-0  33535-3 0  9991","2 48897  97.5423 209.2354 0010210  58.6452 301.5777 15.14014015 40373","2021-059U","48897","6902.111","95.111","531.023","516.928","0"
"GENERATED VIA SPACETRACK.ORG API","18 SPCS","48897","SPACEBEE-109","PAYLOAD","U","21059U","2022-03-19 20:42:39","616992","15.14014015","0.001021","97.5423","209.2354","58.6452","301.5777","0","999","4037","0.00033535","0.00006032","0","3366144","0 SPACEBEE-109","1 48897U 21059U   22078.86295853  .00006032  00000-0  33535-3 0  9991","2 48897  97.5423 209.2354 0010210  58.6452 301.5777 15.14014015 40373","2021-059U","48897","6902.111","95.111","531.023","516.928","0"
"GENERATED VIA SPACETRACK.ORG API","18 SPCS","48897","SPACEBEE-109","PAYLOAD","U","21059U","2022-03-20 07:48:51","605856","15.14020793","0.0010155","97.5423","209.6937","57.0026","303.218","0","999","4044","0.0003785","0.00006819","0","3367010","0 SPACEBEE-109","1 48897U 21059U   22079.32559729  .00006819  00000-0  37850-3 0  9995","2 48897  97.5423 209.6937 0010155  57.0026 303.2180 15.14020793 40447","2021-059U","48897","6902.090","95.111","530.964","516.946","0"
"GENERATED VIA SPACETRACK.ORG API","18 SPCS","48897","SPACEBEE-109","PAYLOAD","U","21059U","2022-03-20 14:09:32","680512","15.14024587","0.0010126","97.5423","209.9555","56.1294","304.0899","0","999","4048","0.00040413","0.00007286","0","3367488","0 SPACEBEE-109","1 48897U 21059U   22079.58996158  .00007286  00000-0  40413-3 0  9992","2 48897  97.5423 209.9555 0010126  56.1294 304.0899 15.14024587 40486","2021-059U","48897","6902.078","95.111","530.932","516.954","0"
"GENERATED VIA SPACETRACK.ORG API","18 SPCS","48897","SPACEBEE-109","PAYLOAD","U","21059U","2022-03-20 22:05:23","930304","15.14029226","0.0010097","97.5424","210.2829","55.04","305.1778","0","999","4053","0.00040697","0.00007339","0","3367646","0 SPACEBEE-109","1 48897U 21059U   22079.92041586  .00007339  00000-0  40697-3 0  9999","2 48897  97.5424 210.2829 0010097  55.0400 305.1778 15.14029226 40539","2021-059U","48897","6902.064","95.110","530.898","516.960","0"
"GENERATED VIA SPACETRACK.ORG API","18 SPCS","48897","SPACEBEE-109","PAYLOAD","U","21059U","2022-03-21 13:57:06","177600","15.14037603","0.0010052","97.5425","210.9375","52.9203","307.2946","0","999","4063","0.00038606","0.0000696","0","3368827","0 SPACEBEE-109","1 48897U 21059U   22080.58132150  .00006960  00000-0  38606-3 0  9997","2 48897  97.5425 210.9375 0010052  52.9203 307.2946 15.14037603 40630","2021-059U","48897","6902.039","95.110","530.842","516.966","0"
"GENERATED VIA SPACETRACK.ORG API","18 SPCS","48897","SPACEBEE-109","PAYLOAD","U","21059U","2022-03-21 21:52:57","172512","15.14042385","0.0010064","97.5425","211.2649","51.9406","308.2732","0","999","4068","0.00038481","0.00006938","0","3368836","0 SPACEBEE-109","1 48897U 21059U   22080.91177283  .00006938  00000-0  38481-3 0  9996","2 48897  97.5425 211.2649 0010064  51.9406 308.2732 15.14042385 40687","2021-059U","48897","6902.024","95.110","530.836","516.943","0"
"GENERATED VIA SPACETRACK.ORG API","18 SPCS","48897","SPACEBEE-109","PAYLOAD","U","21059U","2022-03-22 02:38:27","697920","15.14046081","0.0010043","97.5425","211.4611","51.3281","308.8847","0","999","4071","0.00040602","0.00007325","0","3368993","0 SPACEBEE-109","1 48897U 21059U   22081.11004280  .00007325  00000-0  40602-3 0  9994","2 48897  97.5425 211.4611 0010043  51.3281 308.8847 15.14046081 40714","2021-059U","48897","6902.013","95.109","530.810","516.946","0"
"GENERATED VIA SPACETRACK.ORG API","18 SPCS","48897","SPACEBEE-109","PAYLOAD","U","21059U","2022-03-22 07:23:58","207776","15.14048653","0.0010032","97.5425","211.6575","50.5764","309.6354","0","999","4074","0.00039166","0.00007064","0","3369829","0 SPACEBEE-109","1 48897U 21059U   22081.30831259  .00007064  00000-0  39166-3 0  9992","2 48897  97.5425 211.6575 0010032  50.5764 309.6354 15.14048653 40742","2021-059U","48897","6902.005","95.109","530.794","516.946","0"
